RSP-03                  
1 65732U 98067XL  26046.54495280  .04865991  12102-4  12988-2 0  9990
2 65732  51.6092 158.8222 0008654 330.2514  29.8014 16.27446151 23430
YOTSUBA-KULOVER         
1 65941U 98067XN  26046.51574042  .00164991  00000+0  11759-2 0  9995
2 65941  51.6246 171.5729 0004623 308.2931  51.7651 15.72770620 20008
BOTAN                   
1 65942U 98067XP  26046.57727137  .00486963  10068-3  15961-2 0  9991
2 65942  51.6166 166.6675 0008759 330.3659  29.6849 15.89938548 20075
E-KAGAKU-1              
1 65943U 98067XQ  26046.51706027  .00163999  00000+0  11758-2 0  9993
2 65943  51.6274 171.5949 0004641 322.6384  37.4291 15.72633938 20008
HRC MONOBLOCK CAMERA    
1 66052U 98067XR  26046.54926381  .00052002  00000+0  63608-3 0  9999
2 66052  51.6277 177.0654 0001906  11.5180 348.5856 15.59873379 18938
HTV-X1                  
1 66174U 25241A   26046.56961129  .00012237  00000+0  23255-3 0  9999
2 66174  51.6318 181.6982 0010992 101.7612 258.4610 15.48625638   514
SZ-21 MODULE            
1 66515U 25246C   26046.20281023  .00040350  00000+0  37236-3 0  9993
2 66515  41.4768 341.5977 0002175 296.5638  63.4980 15.66814588 14541
SHENZHOU-22             
1 66645U 25272A   26046.24710755  .00032152  00000+0  39404-3 0  9999
2 66645  41.4684 344.6145 0004086 100.8613 259.2686 15.59657652267644
SOYUZ-MS 28             
1 66664U 25275A   26046.56961129  .00012237  00000+0  23255-3 0  9990
2 66664  51.6318 181.6982 0010992 101.7612 258.4610 15.48625638  1283
DUPLEX                  
1 66906U 98067XS  26046.54891570  .00035209  00000+0  52648-3 0  9990
2 66906  51.6292 180.0635 0001408  71.9206 288.1938 15.54659090 11684
ISS OBJECT XT           
1 66907U 98067XT  26046.37411531  .00146041  00000+0  15462-2 0  9996
2 66907  51.6273 178.8932 0002237 308.7066  51.3728 15.63144577 11681
ISS OBJECT XU           
1 66908U 98067XU  26046.37339991  .00145508  00000+0  15388-2 0  9990
2 66908  51.6258 178.8857 0002257 316.6221  43.4595 15.63176212 11689
